TDRS 3                  
1 19548U 88091B   23117.02966028 -.00000300  00000+0  00000+0 0  9992
2 19548  13.4838 348.9272 0037819 339.5623 208.0076  1.00268695113869
FLTSATCOM 8 (USA 46)    
1 20253U 89077A   23117.07202153 -.00000079  00000+0  00000+0 0  9992
2 20253  12.7669 358.1749 0005393 100.6780 213.7025  1.00271962249108
SKYNET 4C               
1 20776U 90079A   23116.82775465  .00000125  00000+0  00000+0 0  9990
2 20776  13.7113 357.7453 0002642  39.4232 148.8882  1.00279474119432
TDRS 5                  
1 21639U 91054B   23117.16317178  .00000085  00000+0  00000+0 0  9999
2 21639  14.2118   2.2271 0027896 358.5112 105.4162  1.00280621116200
TDRS 6                  
1 22314U 93003B   23117.14707625 -.00000295  00000+0  00000+0 0  9998
2 22314  14.1495   5.4995 0010219 123.7972  92.6949  1.00273575110870
UFO 2 (USA 95)          
1 22787U 93056A   23116.87480030  .00000125  00000+0  00000+0 0  9998
2 22787  11.5451   9.5034 0003948  25.3382 163.4838  1.00263343107152
USA 99 (MILSTAR-1 1)    
1 22988U 94009A   23117.40342933 -.00000195  00000+0  00000+0 0  9997
2 22988  15.8538  39.8125 0002921 334.3109 256.2536  1.00274428 20140
USA 107 (DSP 17)        
1 23435U 94084A   23115.89144868 -.00000132  00000+0  00000+0 0  9997
2 23435  14.5705   3.3116 0001287 290.3019 252.5472  0.99083815 21437
UFO 4 (USA 108)         
1 23467U 95003A   23117.50060396 -.00000022  00000+0  00000+0 0  9995
2 23467   9.8166  16.7891 0004050  56.5474 134.4011  1.00271769103456
AMSC 1                  
1 23553U 95019A   23117.21452514 -.00000093  00000+0  00000+0 0  9991
2 23553  12.2401  24.1423 0005872   2.5444 158.0298  1.00271600102662
TDRS 7                  
1 23613U 95035B   23116.90371303 -.00000203  00000+0  00000+0 0  9990
2 23613  13.8558 356.2250 0029310  57.7234 210.8741  1.00270779101641
USA 115 (MILSTAR-1 2)   
1 23712U 95060A   23116.41396583 -.00000021  00000+0  00000+0 0  9999
2 23712  13.6464  12.0150 0001592 357.0569 234.0814  1.00274463 21374
INMARSAT 3-F1           
1 23839U 96020A   23116.60385186 -.00000140  00000+0  00000+0 0  9996
2 23839   8.1910  56.0070 0006339   8.4453 356.5495  1.00002178 98787
INMARSAT 3-F2           
1 24307U 96053A   23117.23296431  .00000089  00000+0  00000+0 0  9998
2 24307   7.2323  64.5178 0009266 355.3336 108.1862  0.99983499 97481
AMC-1 (GE-1)            
1 24315U 96054A   23117.56085484  .00000065  00000+0  00000+0 0  9992
2 24315   6.3660  70.3934 0003436 325.8212 250.0664  1.00272352 97521
INMARSAT 3-F3           
1 24674U 96070A   23116.86716433 -.00000351  00000+0  00000+0 0  9994
2 24674   7.8134  59.4975 0005708 352.0351 232.7081  0.99992629 96436
GALAXY 25 (G-25)        
1 24812U 97026A   23117.62360412 -.00000263  00000+0  00000+0 0  9999
2 24812   4.4795  80.4639 0012220 339.1051 178.9613  0.99039965 94858
