[{"OBJECT_NAME":"TDRS 3","OBJECT_ID":"1988-091B","EPOCH":"2023-04-27T00:42:42.648192","MEAN_MOTION":1.00268695,"ECCENTRICITY":0.0037819,"INCLINATION":13.4838,"RA_OF_ASC_NODE":348.9272,"ARG_OF_PERICENTER":339.5623,"MEAN_ANOMALY":208.0076,"EPHEMERIS_TYPE":0,"CLASSIFICATION_TYPE":"U","NORAD_CAT_ID":19548,"ELEMENT_SET_NO":999,"REV_AT_EPOCH":11386,"BSTAR":0,"MEAN_MOTION_DOT":-3.0e-6,"MEAN_MOTION_DDOT":0},{"OBJECT_NAME":"FLTSATCOM 8 (USA 46)","OBJECT_ID":"1989-077A","EPOCH":"2023-04-27T01:43:42.660192","MEAN_MOTION":1.00271962,"ECCENTRICITY":0.0005393,"INCLINATION":12.7669,"RA_OF_ASC_NODE":358.1749,"ARG_OF_PERICENTER":100.678,"MEAN_ANOMALY":213.7025,"EPHEMERIS_TYPE":0,"CLASSIFICATION_TYPE":"U","NORAD_CAT_ID":20253,"ELEMENT_SET_NO":999,"REV_AT_EPOCH":24910,"BSTAR":0,"MEAN_MOTION_DOT":-7.9e-7,"MEAN_MOTION_DDOT":0},{"OBJECT_NAME":"SKYNET 4C","OBJECT_ID":"1990-079A","EPOCH":"2023-04-26T19:51:58.001760","MEAN_MOTION":1.00279474,"ECCENTRICITY":0.0002642,"INCLINATION":13.7113,"RA_OF_ASC_NODE":357.7453,"ARG_OF_PERICENTER":39.4232,"MEAN_ANOMALY":148.8882,"EPHEMERIS_TYPE":0,"CLASSIFICATION_TYPE":"U","NORAD_CAT_ID":20776,"ELEMENT_SET_NO":999,"REV_AT_EPOCH":11943,"BSTAR":0,"MEAN_MOTION_DOT":1.25e-6,"MEAN_MOTION_DDOT":0},{"OBJECT_NAME":"TDRS 5","OBJECT_ID":"1991-054B","EPOCH":"2023-04-27T03:54:58.041792","MEAN_MOTION":1.00280621,"ECCENTRICITY":0.0027896,"INCLINATION":14.2118,"RA_OF_ASC_NODE":2.2271,"ARG_OF_PERICENTER":358.5112,"MEAN_ANOMALY":105.4162,"EPHEMERIS_TYPE":0,"CLASSIFICATION_TYPE":"U","NORAD_CAT_ID":21639,"ELEMENT_SET_NO":999,"REV_AT_EPOCH":11620,"BSTAR":0,"MEAN_MOTION_DOT":8.5e-7,"MEAN_MOTION_DDOT":0},{"OBJECT_NAME":"TDRS 6","OBJECT_ID":"1993-003B","EPOCH":"2023-04-27T03:31:47.388000","MEAN_MOTION":1.00273575,"ECCENTRICITY":0.0010219,"INCLINATION":14.1495,"RA_OF_ASC_NODE":5.4995,"ARG_OF_PERICENTER":123.7972,"MEAN_ANOMALY":92.6949,"EPHEMERIS_TYPE":0,"CLASSIFICATION_TYPE":"U","NORAD_CAT_ID":22314,"ELEMENT_SET_NO":999,"REV_AT_EPOCH":11087,"BSTAR":0,"MEAN_MOTION_DOT":-2.95e-6,"MEAN_MOTION_DDOT":0},{"OBJECT_NAME":"UFO 2 (USA 95)","OBJECT_ID":"1993-056A","EPOCH":"2023-04-26T20:59:42.745920","MEAN_MOTION":1.00263343,"ECCENTRICITY":0.0003948,"INCLINATION":11.5451,"RA_OF_ASC_NODE":9.5034,"ARG_OF_PERICENTER":25.3382,"MEAN_ANOMALY":163.4838,"EPHEMERIS_TYPE":0,"CLASSIFICATION_TYPE":"U","NORAD_CAT_ID":22787,"ELEMENT_SET_NO":999,"REV_AT_EPOCH":10715,"BSTAR":0,"MEAN_MOTION_DOT":1.25e-6,"MEAN_MOTION_DDOT":0},{"OBJECT_NAME":"USA 99 (MILSTAR-1 1)","OBJECT_ID":"1994-009A","EPOCH":"2023-04-27T09:40:56.294112","MEAN_MOTION":1.00274428,"ECCENTRICITY":0.0002921,"INCLINATION":15.8538,"RA_OF_ASC_NODE":39.8125,"ARG_OF_PERICENTER":334.3109,"MEAN_ANOMALY":256.2536,"EPHEMERIS_TYPE":0,"CLASSIFICATION_TYPE":"U","NORAD_CAT_ID":22988,"ELEMENT_SET_NO":999,"REV_AT_EPOCH":2014,"BSTAR":0,"MEAN_MOTION_DOT":-1.95e-6,"MEAN_MOTION_DDOT":0},{"OBJECT_NAME":"USA 107 (DSP 17)","OBJECT_ID":"1994-084A","EPOCH":"2023-04-25T21:23:41.165952","MEAN_MOTION":0.99083815,"ECCENTRICITY":0.0001287,"INCLINATION":14.5705,"RA_OF_ASC_NODE":3.3116,"ARG_OF_PERICENTER":290.3019,"MEAN_ANOMALY":252.5472,"EPHEMERIS_TYPE":0,"CLASSIFICATION_TYPE":"U","NORAD_CAT_ID":23435,"ELEMENT_SET_NO":999,"REV_AT_EPOCH":2143,"BSTAR":0,"MEAN_MOTION_DOT":-1.32e-6,"MEAN_MOTION_DDOT":0},{"OBJECT_NAME":"UFO 4 (USA 108)","OBJECT_ID":"1995-003A","EPOCH":"2023-04-27T12:00:52.182144","MEAN_MOTION":1.00271769,"ECCENTRICITY":0.000405,"INCLINATION":9.8166,"RA_OF_ASC_NODE":16.7891,"ARG_OF_PERICENTER":56.5474,"MEAN_ANOMALY":134.4011,"EPHEMERIS_TYPE":0,"CLASSIFICATION_TYPE":"U","NORAD_CAT_ID":23467,"ELEMENT_SET_NO":999,"REV_AT_EPOCH":10345,"BSTAR":0,"MEAN_MOTION_DOT":-2.2e-7,"MEAN_MOTION_DDOT":0},{"OBJECT_NAME":"AMSC 1","OBJECT_ID":"1995-019A","EPOCH":"2023-04-27T05:08:54.972096","MEAN_MOTION":1.002716,"ECCENTRICITY":0.0005872,"INCLINATION":12.2401,"RA_OF_ASC_NODE":24.1423,"ARG_OF_PERICENTER":2.5444,"MEAN_ANOMALY":158.0298,"EPHEMERIS_TYPE":0,"CLASSIFICATION_TYPE":"U","NORAD_CAT_ID":23553,"ELEMENT_SET_NO":999,"REV_AT_EPOCH":10266,"BSTAR":0,"MEAN_MOTION_DOT":-9.3e-7,"MEAN_MOTION_DDOT":0},{"OBJECT_NAME":"TDRS 7","OBJECT_ID":"1995-035B","EPOCH":"2023-04-26T21:41:20.805792","MEAN_MOTION":1.00270779,"ECCENTRICITY":0.002931,"INCLINATION":13.8558,"RA_OF_ASC_NODE":356.225,"ARG_OF_PERICENTER":57.7234,"MEAN_ANOMALY":210.8741,"EPHEMERIS_TYPE":0,"CLASSIFICATION_TYPE":"U","NORAD_CAT_ID":23613,"ELEMENT_SET_NO":999,"REV_AT_EPOCH":10164,"BSTAR":0,"MEAN_MOTION_DOT":-2.03e-6,"MEAN_MOTION_DDOT":0},{"OBJECT_NAME":"USA 115 (MILSTAR-1 2)","OBJECT_ID":"1995-060A","EPOCH":"2023-04-26T09:56:06.647712","MEAN_MOTION":1.00274463,"ECCENTRICITY":0.0001592,"INCLINATION":13.6464,"RA_OF_ASC_NODE":12.015,"ARG_OF_PERICENTER":357.0569,"MEAN_ANOMALY":234.0814,"EPHEMERIS_TYPE":0,"CLASSIFICATION_TYPE":"U","NORAD_CAT_ID":23712,"ELEMENT_SET_NO":999,"REV_AT_EPOCH":2137,"BSTAR":0,"MEAN_MOTION_DOT":-2.1e-7,"MEAN_MOTION_DDOT":0},{"OBJECT_NAME":"INMARSAT 3-F1","OBJECT_ID":"1996-020A","EPOCH":"2023-04-26T14:29:32.800704","MEAN_MOTION":1.00002178,"ECCENTRICITY":0.0006339,"INCLINATION":8.191,"RA_OF_ASC_NODE":56.007,"ARG_OF_PERICENTER":8.4453,"MEAN_ANOMALY":356.5495,"EPHEMERIS_TYPE":0,"CLASSIFICATION_TYPE":"U","NORAD_CAT_ID":23839,"ELEMENT_SET_NO":999,"REV_AT_EPOCH":9878,"BSTAR":0,"MEAN_MOTION_DOT":-1.4e-6,"MEAN_MOTION_DDOT":0},{"OBJECT_NAME":"INMARSAT 3-F2","OBJECT_ID":"1996-053A","EPOCH":"2023-04-27T05:35:28.116384","MEAN_MOTION":0.99983499,"ECCENTRICITY":0.0009266,"INCLINATION":7.2323,"RA_OF_ASC_NODE":64.5178,"ARG_OF_PERICENTER":355.3336,"MEAN_ANOMALY":108.1862,"EPHEMERIS_TYPE":0,"CLASSIFICATION_TYPE":"U","NORAD_CAT_ID":24307,"ELEMENT_SET_NO":999,"REV_AT_EPOCH":9748,"BSTAR":0,"MEAN_MOTION_DOT":8.9e-7,"MEAN_MOTION_DDOT":0},{"OBJECT_NAME":"AMC-1 (GE-1)","OBJECT_ID":"1996-054A","EPOCH":"2023-04-27T13:27:37.858176","MEAN_MOTION":1.00272352,"ECCENTRICITY":0.0003436,"INCLINATION":6.366,"RA_OF_ASC_NODE":70.3934,"ARG_OF_PERICENTER":325.8212,"MEAN_ANOMALY":250.0664,"EPHEMERIS_TYPE":0,"CLASSIFICATION_TYPE":"U","NORAD_CAT_ID":24315,"ELEMENT_SET_NO":999,"REV_AT_EPOCH":9752,"BSTAR":0,"MEAN_MOTION_DOT":6.5e-7,"MEAN_MOTION_DDOT":0},{"OBJECT_NAME":"INMARSAT 3-F3","OBJECT_ID":"1996-070A","EPOCH":"2023-04-26T20:48:42.998112","MEAN_MOTION":0.99992629,"ECCENTRICITY":0.0005708,"INCLINATION":7.8134,"RA_OF_ASC_NODE":59.4975,"ARG_OF_PERICENTER":352.0351,"MEAN_ANOMALY":232.7081,"EPHEMERIS_TYPE":0,"CLASSIFICATION_TYPE":"U","NORAD_CAT_ID":24674,"ELEMENT_SET_NO":999,"REV_AT_EPOCH":9643,"BSTAR":0,"MEAN_MOTION_DOT":-3.51e-6,"MEAN_MOTION_DDOT":0},{"OBJECT_NAME":"GALAXY 25 (G-25)","OBJECT_ID":"1997-026A","EPOCH":"2023-04-27T14:57:59.395968","MEAN_MOTION":0.99039965,"ECCENTRICITY":0.001222,"INCLINATION":4.4795,"RA_OF_ASC_NODE":80.4639,"ARG_OF_PERICENTER":339.1051,"MEAN_ANOMALY":178.9613,"EPHEMERIS_TYPE":0,"CLASSIFICATION_TYPE":"U","NORAD_CAT_ID":24812,"ELEMENT_SET_NO":999,"REV_AT_EPOCH":9485,"BSTAR":0,"MEAN_MOTION_DOT":-2.63e-6,"MEAN_MOTION_DDOT":0}]
